[
    {
        "CCSDS_OMM_VERS": "3.0",
        "COMMENT": "GENERATED VIA SPACE-TRACK.ORG API",
        "CREATION_DATE": "2025-04-14T03:05:54",
        "ORIGINATOR": "18 SPCS",
        "OBJECT_NAME": "GALILEO 5 (261)",
        "OBJECT_ID": "2014-050A",
        "CENTER_NAME": "EARTH",
        "REF_FRAME": "TEME",
        "TIME_SYSTEM": "UTC",
        "MEAN_ELEMENT_THEORY": "SGP4",
        "EPOCH": "2025-04-12T18:23:09.070944",
        "MEAN_MOTION": "1.85519884",
        "ECCENTRICITY": "0.16257150",
        "INCLINATION": "49.3446",
        "RA_OF_ASC_NODE": "290.9737",
        "ARG_OF_PERICENTER": "162.7623",
        "MEAN_ANOMALY": "203.4738",
        "EPHEMERIS_TYPE": "0",
        "CLASSIFICATION_TYPE": "U",
        "NORAD_CAT_ID": "40128",
        "ELEMENT_SET_NO": "999",
        "REV_AT_EPOCH": "7033",
        "BSTAR": "0.00000000000000",
        "MEAN_MOTION_DOT": "-0.00000062",
        "MEAN_MOTION_DDOT": "0.0000000000000",
        "SEMIMAJOR_AXIS": "27977.455",
        "PERIOD": "776.197",
        "APOAPSIS": "26147.656",
        "PERIAPSIS": "17050.983",
        "OBJECT_TYPE": "PAYLOAD",
        "RCS_SIZE": "LARGE",
        "COUNTRY_CODE": "ESA",
        "LAUNCH_DATE": "2014-08-22",
        "SITE": "FRGUI",
        "DECAY_DATE": null,
        "FILE": "4701263",
        "GP_ID": "285536912",
        "TLE_LINE0": "0 GALILEO 5 (261)",
        "TLE_LINE1": "1 40128U 14050A   25102.76607721 -.00000062  00000-0  00000-0 0  9990",
        "TLE_LINE2": "2 40128  49.3446 290.9737 1625715 162.7623 203.4738  1.85519884 70337"
    }
]